{
  "norad_id": 28893,
  "name": "SINAH 1",
  "history": [
    {
      "epoch": "2026-03-28T21:22:33.628800Z",
      "apogee_km": 690.4938548618002,
      "perigee_km": 669.4756153093231,
      "latitude_deg": -7.1992652155366584e-06,
      "longitude_deg": 74.85436366407214,
      "height_km": 693.0339466909343,
      "semi_major_axis_km": 7058.121735085561,
      "eccentricity": 0.00148894,
      "inclination_deg": 98.2721,
      "raan_deg": 221.7991,
      "arg_perigee_deg": 163.3078,
      "mean_anomaly_deg": 196.8617,
      "mean_motion_rev_day": 14.64094284
    },
    {
      "epoch": "2026-03-29T05:34:37.502400Z",
      "apogee_km": 690.501965516718,
      "perigee_km": 669.4617132565063,
      "latitude_deg": -2.5061966616216183e-05,
      "longitude_deg": -48.15537990081698,
      "height_km": 692.9844594020959,
      "semi_major_axis_km": 7058.118839386611,
      "eccentricity": 0.0014905,
      "inclination_deg": 98.2722,
      "raan_deg": 222.1423,
      "arg_perigee_deg": 162.2666,
      "mean_anomaly_deg": 197.9059,
      "mean_motion_rev_day": 14.64095185
    }
  ]
}